OBJECT_NAME,OBJECT_ID,EPOCH,MEAN_MOTION,ECCENTRICITY,INCLINATION,RA_OF_ASC_NODE,ARG_OF_PERICENTER,MEAN_ANOMALY,EPHEMERIS_TYPE,CLASSIFICATION_TYPE,NORAD_CAT_ID,ELEMENT_SET_NO,REV_AT_EPOCH,BSTAR,MEAN_MOTION_DOT,MEAN_MOTION_DDOT
ONEWEB-0410,2022-012A,2026-07-18T10:14:55.836960,13.17649184,.0001562,87.9160,359.6454,49.0029,311.1238,0,U,51622,999,21781,-.44323539E-3,-.159E-5,0
ONEWEB-0411,2022-012B,2026-07-18T02:10:47.718912,13.10373874,.00023377,87.8822,30.1096,94.9455,265.1939,0,U,51623,999,21333,-.16318473E-2,-.557E-5,0
ONEWEB-0415,2022-012C,2026-07-18T02:05:54.381408,13.10370291,.00021344,87.8818,30.1079,87.0884,273.0487,0,U,51624,999,21333,-.12139737E-2,-.411E-5,0
ONEWEB-0416,2022-012D,2026-07-18T11:32:47.179104,13.10374614,.00021583,87.8812,30.0460,83.6241,276.5132,0,U,51625,999,21342,-.18703096E-2,-.64E-5,0
ONEWEB-0422,2022-012E,2026-07-17T23:33:25.424928,13.17648504,.00019863,87.9159,359.7341,113.6290,246.5050,0,U,51626,999,21786,.19633552E-3,.89E-6,0
ONEWEB-0423,2022-012F,2026-07-18T10:19:48.005472,13.17648734,.00017705,87.9150,359.6484,94.6143,265.5191,0,U,51627,999,21781,.18433347E-3,.84E-6,0
ONEWEB-0425,2022-012G,2026-07-18T11:47:22.913088,13.10400242,.00021665,87.8819,30.0279,75.7043,284.4325,0,U,51628,999,21342,-.64380206E-2,-.2235E-4,0
ONEWEB-0428,2022-012H,2026-07-18T05:48:15.287904,13.10373407,.00018027,87.8811,30.0844,88.6192,271.5142,0,U,51629,999,21335,-.12365622E-2,-.419E-5,0
ONEWEB-0431,2022-012J,2026-07-18T12:23:54.792096,13.10373647,.00024207,87.8819,30.0224,94.9511,265.1892,0,U,51630,999,21344,.17342667E-2,.618E-5,0
ONEWEB-0434,2022-012K,2026-07-18T11:52:33.084768,13.10377297,.00014666,87.8824,30.0535,69.3472,290.7813,0,U,51631,999,21342,-.76584636E-3,-.255E-5,0
ONEWEB-0435,2022-012L,2026-07-18T12:02:06.883584,13.10379557,.00019219,87.8818,30.0355,97.8896,262.2450,0,U,51632,999,21341,.10365509E-3,.49E-6,0
ONEWEB-0436,2022-012M,2026-07-18T10:07:38.901792,13.17647220,.00019527,87.9156,359.6340,98.9827,261.1526,0,U,51633,999,21779,-.9660658E-5,.9E-7,0
ONEWEB-0438,2022-012N,2026-07-18T06:10:14.128608,13.10374898,.0001781,87.8815,30.0885,81.1733,278.9596,0,U,51634,999,21341,-.20988716E-2,-.72E-5,0
ONEWEB-0439,2022-012P,2026-07-18T11:45:00.046368,13.10376769,.00017448,87.8819,30.0296,86.8944,273.2383,0,U,51635,999,21342,-.13984744E-2,-.476E-5,0
ONEWEB-0442,2022-012Q,2026-07-18T09:56:43.044576,13.17650818,.00016315,87.9148,359.6659,75.1175,285.0137,0,U,51636,999,21778,.45433652E-4,.31E-6,0
ONEWEB-0443,2022-012R,2026-07-17T23:28:33.919968,13.17647850,.00015443,87.9149,359.7535,99.7378,260.3928,0,U,51637,999,21777,-.77772508E-4,-.17E-6,0
ONEWEB-0444,2022-012S,2026-07-18T11:30:19.800576,13.10371845,.00016585,87.8819,30.0302,91.6983,268.4334,0,U,51638,999,21343,-.17551165E-2,-.6E-5,0
ONEWEB-0445,2022-012T,2026-07-18T11:59:39.220800,13.10378654,.00019218,87.8826,30.0164,85.8978,274.2369,0,U,51639,999,21344,-.36912849E-3,-.116E-5,0
ONEWEB-0446,2022-012U,2026-07-18T05:58:01.113600,13.10371516,.00020998,87.8815,30.0933,82.1971,277.9395,0,U,51640,999,21339,-.18024475E-2,-.616E-5,0
ONEWEB-0448,2022-012V,2026-07-18T11:35:12.840000,13.10373052,.00017948,87.8813,30.0419,88.5500,271.5833,0,U,51641,999,21339,-.22873675E-2,-.786E-5,0
ONEWEB-0449,2022-012W,2026-07-18T11:42:32.781024,13.10374562,.00017851,87.8821,30.0284,69.0180,291.1138,0,U,51642,999,21340,-.18549479E-2,-.635E-5,0
ONEWEB-0451,2022-012X,2026-07-18T10:02:46.557024,13.17648587,.00016779,87.9159,359.6332,89.6445,270.4879,0,U,51643,999,21777,-.59935448E-3,-.22E-5,0
ONEWEB-0452,2022-012Y,2026-07-18T10:00:21.501792,13.17647675,.00015671,87.9147,359.6674,93.3521,266.7790,0,U,51644,999,21778,.10212889E-3,.53E-6,0
ONEWEB-0456,2022-012AA,2026-07-18T06:24:53.843904,13.10375074,.00018287,87.8832,30.0618,92.7700,267.3637,0,U,51646,999,21341,-.61077089E-3,-.201E-5,0
ONEWEB-0457,2022-012AB,2026-07-18T05:52:56.447328,13.10371587,.0002056,87.8815,30.0813,78.7458,281.3901,0,U,51647,999,21341,-.15397706E-2,-.525E-5,0
ONEWEB-0458,2022-012AC,2026-07-18T11:53:33.338400,13.10376267,.00016171,87.8823,30.0201,87.6286,272.5027,0,U,51648,999,21340,-.67184346E-3,-.222E-5,0
ONEWEB-0461,2022-012AD,2026-07-18T12:21:17.619264,13.17648641,.00019132,87.9160,359.6275,89.6580,270.4770,0,U,51649,999,21801,-.40968798E-3,-.146E-5,0
ONEWEB-0463,2022-012AE,2026-07-18T10:05:12.765696,13.17649010,.00019795,87.9149,359.6659,89.9917,270.1441,0,U,51650,999,21778,-.46222818E-3,-.167E-5,0
ONEWEB-0464,2022-012AF,2026-07-18T00:50:10.158720,13.10375658,.00016163,87.8816,30.1328,95.2991,264.8321,0,U,51651,999,21336,-.72165001E-3,-.239E-5,0
ONEWEB-0468,2022-012AG,2026-07-18T11:57:12.631104,13.10375231,.00017177,87.8816,30.0335,95.3954,264.7369,0,U,51652,999,21340,-.28362976E-3,-.86E-6,0
